NORAD_CAT_ID,OBJECT_NAME,OBJECT_TYPE,EPOCH,MEAN_MOTION,ECCENTRICITY,INCLINATION,RA_OF_ASC_NODE,ARG_OF_PERICENTER,MEAN_ANOMALY,BSTAR,MEAN_MOTION_DOT,MEAN_MOTION_DDOT,TLE_LINE0,TLE_LINE1,TLE_LINE2,SEMIMAJOR_AXIS,PERIOD,APOGEE,PERIGEE,DECAYED
49163.0,STARLINK-3088,PAYLOAD,2024-03-11 08:41:55,14.98359373,0.000298,69.9999,310.8259,270.2563,89.8255,-0.00052894,-6.403e-05,0.0,0 STARLINK-3088,1 49163U 21082AK  24071.36244598 -.00006403  00000-0 -52894-3 0  9997,2 49163  69.9999 310.8259 0002980 270.2563  89.8255 14.98359373138548,6950.102,96.105,574.038,569.896,0.0
49163.0,STARLINK-3088,PAYLOAD,2024-03-11 15:06:28,14.98321267,0.0003367,69.9999,310.1533,269.658,90.4193,9.9177e-05,1.09e-05,0.0,0 STARLINK-3088,1 49163U 21082AK  24071.62949544  .00001090  00000-0  99177-4 0  9990,2 49163  69.9999 310.1533 0003367 269.6580  90.4193 14.98321267138570,6950.22,96.108,574.425,569.745,0.0
49163.0,STARLINK-3088,PAYLOAD,2024-03-12 02:19:24,14.98349847,0.0003067,70.0,308.9751,270.3242,89.7565,-0.00036087,-4.398e-05,0.0,0 STARLINK-3088,1 49163U 21082AK  24072.09681231 -.00004398  00000-0 -36087-3 0  9994,2 49163  70.0000 308.9751 0003067 270.3242  89.7565 14.98349847138651,6950.132,96.106,574.128,569.865,0.0
49163.0,STARLINK-3088,PAYLOAD,2024-03-12 08:43:56,14.98335115,0.0002853,69.9998,308.3019,270.6872,89.396,-5.8173e-05,-7.87e-06,0.0,0 STARLINK-3088,1 49163U 21082AK  24072.36385261 -.00000787  00000-0 -58173-4 0  9997,2 49163  69.9998 308.3019 0002853 270.6872  89.3960 14.98335115138691,6950.177,96.107,574.025,570.059,0.0
49163.0,STARLINK-3088,PAYLOAD,2024-03-12 21:33:01,14.98337431,0.000287,69.9999,306.9552,269.0512,91.0319,1.5591e-05,9.3e-07,0.0,0 STARLINK-3088,1 49163U 21082AK  24072.89792981  .00000093  00000-0  15591-4 0  9991,2 49163  69.9999 306.9552 0002870 269.0512  91.0319 14.98337431138769,6950.17,96.107,574.03,570.04,0.0
49163.0,STARLINK-3088,PAYLOAD,2024-03-13 08:45:57,14.98333804,0.000304,69.9984,305.7763,271.6922,88.3889,2.0974e-05,1.57e-06,0.0,0 STARLINK-3088,1 49163U 21082AK  24073.36525018  .00000157  00000-0  20974-4 0  9991,2 49163  69.9984 305.7763 0003040 271.6922  88.3889 14.98333804138848,6950.181,96.107,574.159,569.933,0.0
49163.0,STARLINK-3088,PAYLOAD,2024-03-13 21:35:02,14.98327841,0.0003033,69.9987,304.4293,272.2342,87.8469,2.2338e-05,1.74e-06,0.0,0 STARLINK-3088,1 49163U 21082AK  24073.89933455  .00000174  00000-0  22338-4 0  9992,2 49163  69.9987 304.4293 0003033 272.2342  87.8469 14.98327841138910,6950.2,96.107,574.173,569.957,0.0
49163.0,STARLINK-3088,PAYLOAD,2024-03-14 00:47:18,14.98330653,0.0002965,69.999,304.0928,272.444,87.638,5.5434e-05,5.68e-06,0.0,0 STARLINK-3088,1 49163U 21082AK  24074.03285211  .00000568  00000-0  55434-4 0  9999,2 49163  69.9990 304.0928 0002965 272.4440  87.6380 14.98330653138936,6950.191,96.107,574.117,569.995,0.0
49163.0,STARLINK-3088,PAYLOAD,2024-03-14 08:47:58,14.98330251,0.0002919,69.999,303.2514,272.1948,87.8877,2.7415e-05,2.34e-06,0.0,0 STARLINK-3088,1 49163U 21082AK  24074.36665316  .00000234  00000-0  27415-4 0  9991,2 49163  69.9990 303.2514 0002919 272.1948  87.8877 14.98330251138990,6950.192,96.107,574.086,570.028,0.0
49163.0,STARLINK-3088,PAYLOAD,2024-03-14 21:37:03,14.98331414,0.0002878,69.9993,301.9053,273.1816,86.9014,2.8114e-05,2.42e-06,0.0,0 STARLINK-3088,1 49163U 21082AK  24074.90073156  .00000242  00000-0  28114-4 0  9992,2 49163  69.9993 301.9053 0002878 273.1816  86.9014 14.98331414139069,6950.189,96.107,574.054,570.053,0.0
49163.0,STARLINK-3088,PAYLOAD,2024-03-15 00:49:19,14.98332202,0.0002873,69.9993,301.5686,273.2667,86.8163,3.605e-05,3.37e-06,0.0,0 STARLINK-3088,1 49163U 21082AK  24075.03425063  .00000337  00000-0  36050-4 0  9998,2 49163  69.9993 301.5686 0002873 273.2667  86.8163 14.98332202139089,6950.186,96.107,574.048,570.054,0.0
49163.0,STARLINK-3088,PAYLOAD,2024-03-16 00:51:20,14.98330479,0.0002852,69.9991,299.0428,271.7268,88.3565,4.2924e-05,4.19e-06,0.0,0 STARLINK-3088,1 49163U 21082AK  24076.03565089  .00000419  00000-0  42924-4 0  9990,2 49163  69.9991 299.0428 0002852 271.7268  88.3565 14.98330479139244,6950.191,96.107,574.039,570.074,0.0
49163.0,STARLINK-3088,PAYLOAD,2024-03-16 21:41:05,14.98329191,0.0002965,69.9988,296.8548,271.7817,88.3003,-1.2467e-05,-2.42e-06,0.0,0 STARLINK-3088,1 49163U 21082AK  24076.90353326 -.00000242  00000-0 -12467-4 0  9990,2 49163  69.9988 296.8548 0002965 271.7817  88.3003 14.98329191139362,6950.195,96.107,574.121,570.0,0.0
49163.0,STARLINK-3088,PAYLOAD,2024-03-17 00:53:21,14.98329838,0.0002947,69.9987,296.5177,271.0669,89.0153,-3.3299e-06,-1.33e-06,0.0,0 STARLINK-3088,1 49163U 21082AK  24077.03705261 -.00000133  00000-0 -33299-5 0  9990,2 49163  69.9987 296.5177 0002947 271.0669  89.0153 14.98329838139399,6950.193,96.107,574.107,570.01,0.0
49163.0,STARLINK-3088,PAYLOAD,2024-03-17 21:43:06,14.98330286,0.0002979,69.9985,294.3294,270.2638,89.8179,3.8849e-05,3.71e-06,0.0,0 STARLINK-3088,1 49163U 21082AK  24077.90493106  .00000371  00000-0  38849-4 0  9995,2 49163  69.9985 294.3294 0002979 270.2638  89.8179 14.98330286139514,6950.192,96.107,574.127,569.987,0.0
49163.0,STARLINK-3088,PAYLOAD,2024-03-18 00:55:22,14.98332226,0.0002963,69.9985,293.9923,268.8645,91.2174,5.8307e-05,6.03e-06,0.0,0 STARLINK-3088,1 49163U 21082AK  24078.03844918  .00000603  00000-0  58307-4 0  9990,2 49163  69.9985 293.9923 0002963 268.8645  91.2174 14.98332226139543,6950.186,96.107,574.11,569.992,0.0
49163.0,STARLINK-3088,PAYLOAD,2024-03-18 21:45:06,14.98330625,0.0002923,69.9984,291.8042,265.5152,94.5673,6.4287e-05,6.74e-06,0.0,0 STARLINK-3088,1 49163U 21082AK  24078.90632931  .00000674  00000-0  64287-4 0  9998,2 49163  69.9984 291.8042 0002923 265.5152  94.5673 14.98330625139668,6950.191,96.107,574.087,570.024,0.0
49163.0,STARLINK-3088,PAYLOAD,2024-03-19 00:57:22,14.98332052,0.0002898,69.9985,291.4674,264.5328,95.55,8.0177e-05,8.64e-06,0.0,0 STARLINK-3088,1 49163U 21082AK  24079.03984792  .00000864  00000-0  80177-4 0  9995,2 49163  69.9985 291.4674 0002898 264.5328  95.5500 14.98332052139690,6950.187,96.107,574.066,570.037,0.0
49163.0,STARLINK-3088,PAYLOAD,2024-03-20 13:48:28,14.98331102,0.000275,69.9984,287.5954,264.7762,95.3083,-8.4527e-07,-1.03e-06,0.0,0 STARLINK-3088,1 49163U 21082AK  24080.57532978 -.00000103  00000-0 -84527-6 0  9994,2 49163  69.9984 287.5954 0002750 264.7762  95.3083 14.98331102139911,6950.189,96.107,573.966,570.143,0.0
49163.0,STARLINK-3088,PAYLOAD,2024-03-20 20:13:00,14.98327859,0.0002833,69.9986,286.9223,263.9662,96.1174,-3.0626e-05,-4.58e-06,0.0,0 STARLINK-3088,1 49163U 21082AK  24080.84237223 -.00000458  00000-0 -30626-4 0  9991,2 49163  69.9986 286.9223 0002833 263.9662  96.1174 14.98327859139966,6950.2,96.107,574.034,570.096,0.0
49163.0,STARLINK-3088,PAYLOAD,2024-03-20 21:49:09,14.98327144,0.0002842,69.9986,286.7539,264.3609,95.7226,-3.7878e-05,-5.45e-06,0.0,0 STARLINK-3088,1 49163U 21082AK  24080.90913296 -.00000545  00000-0 -37878-4 0  9992,2 49163  69.9986 286.7539 0002842 264.3609  95.7226 14.98327144139960,6950.202,96.107,574.042,570.091,0.0
49163.0,STARLINK-3088,PAYLOAD,2024-03-21 13:50:29,14.9833323,0.0003008,69.9982,285.0706,271.0331,89.0483,2.445e-05,1.99e-06,0.0,0 STARLINK-3088,1 49163U 21082AK  24081.57672811  .00000199  00000-0  24450-4 0  9996,2 49163  69.9982 285.0706 0003008 271.0331  89.0483 14.98333230140063,6950.183,96.107,574.139,569.957,0.0
49163.0,STARLINK-3088,PAYLOAD,2024-03-21 20:15:01,14.98333288,0.0003012,69.9981,284.3971,270.6847,89.3967,2.6111e-05,2.19e-06,0.0,0 STARLINK-3088,1 49163U 21082AK  24081.84376764  .00000219  00000-0  26111-4 0  9993,2 49163  69.9981 284.3971 0003012 270.6847  89.3967 14.98333288140119,6950.183,96.107,574.141,569.954,0.0
49163.0,STARLINK-3088,PAYLOAD,2024-03-21 21:51:09,14.9833395,0.0003001,69.9981,284.2288,270.6947,89.3869,3.4827e-05,3.23e-06,0.0,0 STARLINK-3088,1 49163U 21082AK  24081.91052688  .00000323  00000-0  34827-4 0  9996,2 49163  69.9981 284.2288 0003001 270.6947  89.3869 14.98333950140115,6950.181,96.107,574.131,569.96,0.0
49163.0,STARLINK-3088,PAYLOAD,2024-03-22 13:52:30,14.98327077,0.0002998,69.9981,282.5452,270.4404,89.6412,6.8724e-05,7.27e-06,0.0,0 STARLINK-3088,1 49163U 21082AK  24082.57813001  .00000727  00000-0  68724-4 0  9994,2 49163  69.9981 282.5452 0002998 270.4404  89.6412 14.98327077140210,6950.202,96.107,574.151,569.983,0.0
49163.0,STARLINK-3088,PAYLOAD,2024-03-22 20:17:02,14.98332493,0.0002594,69.9982,281.8712,262.237,97.8494,-3.737e-05,-5.39e-06,0.0,0 STARLINK-3088,1 49163U 21082AK  24082.84516947 -.00000539  00000-0 -37370-4 0  9999,2 49163  69.9982 281.8712 0002594 262.2370  97.8494 14.98332493140269,6950.185,96.107,573.853,570.247,0.0
49163.0,STARLINK-3088,PAYLOAD,2024-03-22 21:53:10,14.98327244,0.0003037,69.9983,281.703,270.1317,89.9494,7.4885e-05,8.01e-06,0.0,0 STARLINK-3088,1 49163U 21082AK  24082.91193004  .00000801  00000-0  74885-4 0  9994,2 49163  69.9983 281.7030 0003037 270.1317  89.9494 14.98327244140264,6950.201,96.107,574.177,569.956,0.0
49163.0,STARLINK-3088,PAYLOAD,2024-03-23 20:19:03,14.98333158,0.0002874,69.9985,279.3472,260.737,99.3464,5.3901e-05,5.5e-06,0.0,0 STARLINK-3088,1 49163U 21082AK  24083.84656605  .00000550  00000-0  53901-4 0  9995,2 49163  69.9985 279.3472 0002874 260.7370  99.3464 14.98333158140411,6950.183,96.107,574.046,570.051,0.0
49163.0,STARLINK-3088,PAYLOAD,2024-03-23 21:55:11,14.98333484,0.000287,69.9985,279.1789,261.2075,98.8759,5.6564e-05,5.82e-06,0.0,0 STARLINK-3088,1 49163U 21082AK  24083.91332568  .00000582  00000-0  56564-4 0  9995,2 49163  69.9985 279.1789 0002870 261.2075  98.8759 14.98333484140417,6950.182,96.107,574.042,570.052,0.0
49163.0,STARLINK-3088,PAYLOAD,2024-03-24 13:56:31,14.98334401,0.0002908,69.9987,277.4953,269.4081,90.6745,8.8701e-05,9.66e-06,0.0,0 STARLINK-3088,1 49163U 21082AK  24084.58092426  .00000966  00000-0  88701-4 0  9999,2 49163  69.9987 277.4953 0002908 269.4081  90.6745 14.98334401140518,6950.179,96.107,574.065,570.023,0.0
